CCSDS_OMM_VERS = 2.0
CREATION_DATE  = 
ORIGINATOR     = 

OBJECT_NAME    = COSMOS 2058
OBJECT_ID      = 1990-010A
CENTER_NAME    = EARTH
REF_FRAME      = TEME
TIME_SYSTEM    = UTC
MEAN_ELEMENT_THEORY = SGP/SGP4

EPOCH          = 2026-03-11T07:16:50.297952
MEAN_MOTION    = 15.11338561
ECCENTRICITY   = .00091059
INCLINATION    = 82.4671
RA_OF_ASC_NODE = 45.8379
ARG_OF_PERICENTER = 339.2028
MEAN_ANOMALY   = 20.8830

EPHEMERIS_TYPE = 0
CLASSIFICATION_TYPE = U
NORAD_CAT_ID   = 20465
ELEMENT_SET_NO = 999
REV_AT_EPOCH   = 94248
BSTAR          = .29014593E-3
MEAN_MOTION_DOT = .4922E-4
MEAN_MOTION_DDOT = 0

CCSDS_OMM_VERS = 2.0
CREATION_DATE  = 
ORIGINATOR     = 

OBJECT_NAME    = SL-14 R/B
OBJECT_ID      = 1990-010B
CENTER_NAME    = EARTH
REF_FRAME      = TEME
TIME_SYSTEM    = UTC
MEAN_ELEMENT_THEORY = SGP/SGP4

EPOCH          = 2026-03-11T00:51:35.604864
MEAN_MOTION    = 14.83569997
ECCENTRICITY   = .00184728
INCLINATION    = 82.4987
RA_OF_ASC_NODE = 266.1239
ARG_OF_PERICENTER = 297.5723
MEAN_ANOMALY   = 62.3615

EPHEMERIS_TYPE = 0
CLASSIFICATION_TYPE = U
NORAD_CAT_ID   = 20466
ELEMENT_SET_NO = 999
REV_AT_EPOCH   = 92868
BSTAR          = .55980246E-4
MEAN_MOTION_DOT = .486E-5
MEAN_MOTION_DDOT = 0

CCSDS_OMM_VERS = 2.0
CREATION_DATE  = 
ORIGINATOR     = 

OBJECT_NAME    = SL-14 R/B
OBJECT_ID      = 1990-018B
CENTER_NAME    = EARTH
REF_FRAME      = TEME
TIME_SYSTEM    = UTC
MEAN_ELEMENT_THEORY = SGP/SGP4

EPOCH          = 2026-03-10T22:04:43.315392
MEAN_MOTION    = 14.82146372
ECCENTRICITY   = .0017666
INCLINATION    = 82.5205
RA_OF_ASC_NODE = 221.9395
ARG_OF_PERICENTER = 88.3207
MEAN_ANOMALY   = 272.0031

EPHEMERIS_TYPE = 0
CLASSIFICATION_TYPE = U
NORAD_CAT_ID   = 20511
ELEMENT_SET_NO = 999
REV_AT_EPOCH   = 92276
BSTAR          = .76456E-4
MEAN_MOTION_DOT = .634E-5
MEAN_MOTION_DDOT = 0

CCSDS_OMM_VERS = 2.0
CREATION_DATE  = 
ORIGINATOR     = 

OBJECT_NAME    = HST
OBJECT_ID      = 1990-037B
CENTER_NAME    = EARTH
REF_FRAME      = TEME
TIME_SYSTEM    = UTC
MEAN_ELEMENT_THEORY = SGP/SGP4

EPOCH          = 2026-03-11T05:56:45.946464
MEAN_MOTION    = 15.29511346
ECCENTRICITY   = .00018411
INCLINATION    = 28.4722
RA_OF_ASC_NODE = 29.3700
ARG_OF_PERICENTER = 140.8013
MEAN_ANOMALY   = 219.2716

EPHEMERIS_TYPE = 0
CLASSIFICATION_TYPE = U
NORAD_CAT_ID   = 20580
ELEMENT_SET_NO = 999
REV_AT_EPOCH   = 77355
BSTAR          = .29286201E-3
MEAN_MOTION_DOT = .8856E-4
MEAN_MOTION_DDOT = 0

CCSDS_OMM_VERS = 2.0
CREATION_DATE  = 
ORIGINATOR     = 

OBJECT_NAME    = SL-16 R/B
OBJECT_ID      = 1990-046B
CENTER_NAME    = EARTH
REF_FRAME      = TEME
TIME_SYSTEM    = UTC
MEAN_ELEMENT_THEORY = SGP/SGP4

EPOCH          = 2026-03-11T00:58:04.901664
MEAN_MOTION    = 14.15011893
ECCENTRICITY   = .00162568
INCLINATION    = 70.9986
RA_OF_ASC_NODE = 295.0781
ARG_OF_PERICENTER = 297.7656
MEAN_ANOMALY   = 62.1818

EPHEMERIS_TYPE = 0
CLASSIFICATION_TYPE = U
NORAD_CAT_ID   = 20625
ELEMENT_SET_NO = 999
REV_AT_EPOCH   = 84858
BSTAR          = -.86525607E-4
MEAN_MOTION_DOT = -.216E-5
MEAN_MOTION_DDOT = 0

CCSDS_OMM_VERS = 2.0
CREATION_DATE  = 
ORIGINATOR     = 

OBJECT_NAME    = COSMOS 2084
OBJECT_ID      = 1990-055A
CENTER_NAME    = EARTH
REF_FRAME      = TEME
TIME_SYSTEM    = UTC
MEAN_ELEMENT_THEORY = SGP/SGP4

EPOCH          = 2026-03-11T01:12:21.216384
MEAN_MOTION    = 15.05661150
ECCENTRICITY   = .0016887
INCLINATION    = 62.7921
RA_OF_ASC_NODE = 330.9381
ARG_OF_PERICENTER = 190.4078
MEAN_ANOMALY   = 169.6676

EPHEMERIS_TYPE = 0
CLASSIFICATION_TYPE = U
NORAD_CAT_ID   = 20663
ELEMENT_SET_NO = 999
REV_AT_EPOCH   = 93652
BSTAR          = .21533549E-3
MEAN_MOTION_DOT = .2932E-4
MEAN_MOTION_DDOT = 0

CCSDS_OMM_VERS = 2.0
CREATION_DATE  = 
ORIGINATOR     = 

OBJECT_NAME    = SL-6 R/B(2)
OBJECT_ID      = 1990-055D
CENTER_NAME    = EARTH
REF_FRAME      = TEME
TIME_SYSTEM    = UTC
MEAN_ELEMENT_THEORY = SGP/SGP4

EPOCH          = 2026-03-10T21:38:30.124320
MEAN_MOTION    = 15.03601272
ECCENTRICITY   = .0024978
INCLINATION    = 62.7825
RA_OF_ASC_NODE = 249.7283
ARG_OF_PERICENTER = 347.3471
MEAN_ANOMALY   = 12.6998

EPHEMERIS_TYPE = 0
CLASSIFICATION_TYPE = U
NORAD_CAT_ID   = 20666
ELEMENT_SET_NO = 999
REV_AT_EPOCH   = 93837
BSTAR          = .19859E-3
MEAN_MOTION_DOT = .2544E-4
MEAN_MOTION_DDOT = 0

CCSDS_OMM_VERS = 2.0
CREATION_DATE  = 
ORIGINATOR     = 

OBJECT_NAME    = SL-8 R/B
OBJECT_ID      = 1990-078B
CENTER_NAME    = EARTH
REF_FRAME      = TEME
TIME_SYSTEM    = UTC
MEAN_ELEMENT_THEORY = SGP/SGP4

EPOCH          = 2026-03-11T04:31:08.668128
MEAN_MOTION    = 14.89118134
ECCENTRICITY   = .03618758
INCLINATION    = 82.9009
RA_OF_ASC_NODE = 249.9629
ARG_OF_PERICENTER = 8.9629
MEAN_ANOMALY   = 351.7816

EPHEMERIS_TYPE = 0
CLASSIFICATION_TYPE = U
NORAD_CAT_ID   = 20775
ELEMENT_SET_NO = 999
REV_AT_EPOCH   = 80952
BSTAR          = .5116789E-3
MEAN_MOTION_DOT = .17367E-3
MEAN_MOTION_DDOT = 0

CCSDS_OMM_VERS = 2.0
CREATION_DATE  = 
ORIGINATOR     = 

OBJECT_NAME    = SL-8 R/B
OBJECT_ID      = 1991-006B
CENTER_NAME    = EARTH
REF_FRAME      = TEME
TIME_SYSTEM    = UTC
MEAN_ELEMENT_THEORY = SGP/SGP4

EPOCH          = 2026-03-11T07:02:41.894880
MEAN_MOTION    = 13.77494512
ECCENTRICITY   = .00229778
INCLINATION    = 82.9466
RA_OF_ASC_NODE = 168.8537
ARG_OF_PERICENTER = 33.9469
MEAN_ANOMALY   = 20.0604

EPHEMERIS_TYPE = 0
CLASSIFICATION_TYPE = U
NORAD_CAT_ID   = 21088
ELEMENT_SET_NO = 999
REV_AT_EPOCH   = 76429
BSTAR          = .65424519E-4
MEAN_MOTION_DOT = .81E-6
MEAN_MOTION_DDOT = 0

CCSDS_OMM_VERS = 2.0
CREATION_DATE  = 
ORIGINATOR     = 

OBJECT_NAME    = OKEAN-3
OBJECT_ID      = 1991-039A
CENTER_NAME    = EARTH
REF_FRAME      = TEME
TIME_SYSTEM    = UTC
MEAN_ELEMENT_THEORY = SGP/SGP4

EPOCH          = 2026-03-11T05:00:06.342336
MEAN_MOTION    = 15.04818805
ECCENTRICITY   = .00138353
INCLINATION    = 82.5194
RA_OF_ASC_NODE = 335.3724
ARG_OF_PERICENTER = 332.2989
MEAN_ANOMALY   = 27.7499

EPHEMERIS_TYPE = 0
CLASSIFICATION_TYPE = U
NORAD_CAT_ID   = 21397
ELEMENT_SET_NO = 999
REV_AT_EPOCH   = 86526
BSTAR          = .30637918E-3
MEAN_MOTION_DOT = .4361E-4
MEAN_MOTION_DDOT = 0

CCSDS_OMM_VERS = 2.0
CREATION_DATE  = 
ORIGINATOR     = 

OBJECT_NAME    = COSMOS 2151
OBJECT_ID      = 1991-042A
CENTER_NAME    = EARTH
REF_FRAME      = TEME
TIME_SYSTEM    = UTC
MEAN_ELEMENT_THEORY = SGP/SGP4

EPOCH          = 2026-03-11T06:49:17.726880
MEAN_MOTION    = 15.00110467
ECCENTRICITY   = .00139499
INCLINATION    = 82.4931
RA_OF_ASC_NODE = 82.1376
ARG_OF_PERICENTER = 59.0212
MEAN_ANOMALY   = 301.2380

EPHEMERIS_TYPE = 0
CLASSIFICATION_TYPE = U
NORAD_CAT_ID   = 21422
ELEMENT_SET_NO = 999
REV_AT_EPOCH   = 86343
BSTAR          = .15321167E-3
MEAN_MOTION_DOT = .194E-4
MEAN_MOTION_DDOT = 0

CCSDS_OMM_VERS = 2.0
CREATION_DATE  = 
ORIGINATOR     = 

OBJECT_NAME    = SL-14 R/B
OBJECT_ID      = 1991-042B
CENTER_NAME    = EARTH
REF_FRAME      = TEME
TIME_SYSTEM    = UTC
MEAN_ELEMENT_THEORY = SGP/SGP4

EPOCH          = 2026-03-10T21:44:10.745952
MEAN_MOTION    = 14.81831051
ECCENTRICITY   = .0015845
INCLINATION    = 82.4926
RA_OF_ASC_NODE = 219.0420
ARG_OF_PERICENTER = 234.3485
MEAN_ANOMALY   = 125.6254

EPHEMERIS_TYPE = 0
CLASSIFICATION_TYPE = U
NORAD_CAT_ID   = 21423
ELEMENT_SET_NO = 999
REV_AT_EPOCH   = 85325
BSTAR          = .7571E-4
MEAN_MOTION_DOT = .622E-5
MEAN_MOTION_DDOT = 0

